{
  "type": "FeatureCollection",
  "features": [
    {
      "type": "Feature",
      "properties": {
        "norad_id": 35284,
        "name": "COSMOS 2251 DEB",
        "group": "cosmos-2251-debris",
        "lat": -52.50929641307873,
        "lon": 124.28182152734867,
        "alt_km": 777.4554460616191,
        "timestamp": "2025-12-02T23:34:15.913232+00:00",
        "meta_object_name": "COSMOS 2251 DEB",
        "meta_object_id": "1993-036AJN",
        "meta_epoch": "2025-12-01T13:38:31.155360",
        "meta_mean_motion": 14.382963,
        "meta_eccentricity": 0.00163281,
        "meta_inclination": 74.049,
        "meta_ra_of_asc_node": 284.9919,
        "meta_arg_of_pericenter": 3.7139,
        "meta_mean_anomaly": 114.9177,
        "meta_ephemeris_type": 0,
        "meta_classification_type": "U",
        "meta_norad_cat_id": 35284,
        "meta_element_set_no": 999,
        "meta_rev_at_epoch": 65365,
        "meta_bstar": 0.00020439824,
        "meta_mean_motion_dot": 5.97e-06,
        "meta_mean_motion_ddot": 0,
        "tle_line1": "1 35284U 93036AJN 25335.56841615  .00000597  00000+0  20440-3 0  9990",
        "tle_line2": "2 35284  74.0490 284.9919 0016328   3.7139 114.9177 14.38296300653654"
      },
      "geometry": {
        "type": "Point",
        "coordinates": [
          124.28182152734867,
          -52.50929641307873
        ]
      }
    },
    {
      "type": "Feature",
      "properties": {
        "norad_id": 35287,
        "name": "COSMOS 2251 DEB",
        "group": "cosmos-2251-debris",
        "lat": 56.666866466849676,
        "lon": 88.25469894180473,
        "alt_km": 763.8891364702622,
        "timestamp": "2025-12-02T23:34:15.913242+00:00",
        "meta_object_name": "COSMOS 2251 DEB",
        "meta_object_id": "1993-036AJR",
        "meta_epoch": "2025-12-02T08:41:39.046272",
        "meta_mean_motion": 14.36360787,
        "meta_eccentricity": 0.0017133,
        "meta_inclination": 74.0297,
        "meta_ra_of_asc_node": 295.2045,
        "meta_arg_of_pericenter": 34.862,
        "meta_mean_anomaly": 120.536,
        "meta_ephemeris_type": 0,
        "meta_classification_type": "U",
        "meta_norad_cat_id": 35287,
        "meta_element_set_no": 999,
        "meta_rev_at_epoch": 86743,
        "meta_bstar": 0.00020403,
        "meta_mean_motion_dot": 5.72e-06,
        "meta_mean_motion_ddot": 0,
        "tle_line1": "1 35287U 93036AJR 25336.36225748  .00000572  00000+0  20403-3 0  9997",
        "tle_line2": "2 35287  74.0297 295.2045 0017133  34.8620 120.5360 14.36360787867431"
      },
      "geometry": {
        "type": "Point",
        "coordinates": [
          88.25469894180473,
          56.666866466849676
        ]
      }
    },
    {
      "type": "Feature",
      "properties": {
        "norad_id": 35288,
        "name": "COSMOS 2251 DEB",
        "group": "cosmos-2251-debris",
        "lat": -26.645413876673597,
        "lon": 25.74936183144046,
        "alt_km": 669.037115904378,
        "timestamp": "2025-12-02T23:34:15.913253+00:00",
        "meta_object_name": "COSMOS 2251 DEB",
        "meta_object_id": "1993-036AJS",
        "meta_epoch": "2025-12-02T12:13:38.607168",
        "meta_mean_motion": 14.65270796,
        "meta_eccentricity": 0.0039607,
        "meta_inclination": 73.9516,
        "meta_ra_of_asc_node": 34.9675,
        "meta_arg_of_pericenter": 269.719,
        "meta_mean_anomaly": 89.9439,
        "meta_ephemeris_type": 0,
        "meta_classification_type": "U",
        "meta_norad_cat_id": 35288,
        "meta_element_set_no": 999,
        "meta_rev_at_epoch": 87728,
        "meta_bstar": 0.0014116,
        "meta_mean_motion_dot": 7.675e-05,
        "meta_mean_motion_ddot": 0,
        "tle_line1": "1 35288U 93036AJS 25336.50947462  .00007675  00000+0  14116-2 0  9992",
        "tle_line2": "2 35288  73.9516  34.9675 0039607 269.7190  89.9439 14.65270796877283"
      },
      "geometry": {
        "type": "Point",
        "coordinates": [
          25.74936183144046,
          -26.645413876673597
        ]
      }
    },
    {
      "type": "Feature",
      "properties": {
        "norad_id": 35290,
        "name": "COSMOS 2251 DEB",
        "group": "cosmos-2251-debris",
        "lat": 73.79944602807399,
        "lon": 177.84322269441594,
        "alt_km": 623.2047656963205,
        "timestamp": "2025-12-02T23:34:15.913263+00:00",
        "meta_object_name": "COSMOS 2251 DEB",
        "meta_object_id": "1993-036AJU",
        "meta_epoch": "2025-12-01T06:35:33.142560",
        "meta_mean_motion": 14.79807104,
        "meta_eccentricity": 0.00037082,
        "meta_inclination": 74.0051,
        "meta_ra_of_asc_node": 82.0624,
        "meta_arg_of_pericenter": 206.8807,
        "meta_mean_anomaly": 153.2178,
        "meta_ephemeris_type": 0,
        "meta_classification_type": "U",
        "meta_norad_cat_id": 35290,
        "meta_element_set_no": 999,
        "meta_rev_at_epoch": 87788,
        "meta_bstar": 0.002855926,
        "meta_mean_motion_dot": 0.00021548,
        "meta_mean_motion_ddot": 0,
        "tle_line1": "1 35290U 93036AJU 25335.27468915  .00021548  00000+0  28559-2 0  9990",
        "tle_line2": "2 35290  74.0051  82.0624 0003708 206.8807 153.2178 14.79807104877885"
      },
      "geometry": {
        "type": "Point",
        "coordinates": [
          177.84322269441594,
          73.79944602807399
        ]
      }
    },
    {
      "type": "Feature",
      "properties": {
        "norad_id": 35432,
        "name": "COSMOS 2251 DEB",
        "group": "cosmos-2251-debris",
        "lat": -39.36341383348175,
        "lon": 22.472493092068042,
        "alt_km": 506.7148144205157,
        "timestamp": "2025-12-02T23:34:15.913273+00:00",
        "meta_object_name": "COSMOS 2251 DEB",
        "meta_object_id": "1993-036AKA",
        "meta_epoch": "2025-12-01T05:04:45.083424",
        "meta_mean_motion": 15.18892352,
        "meta_eccentricity": 0.0011708,
        "meta_inclination": 74.02,
        "meta_ra_of_asc_node": 39.7774,
        "meta_arg_of_pericenter": 355.1104,
        "meta_mean_anomaly": 4.9976,
        "meta_ephemeris_type": 0,
        "meta_classification_type": "U",
        "meta_norad_cat_id": 35432,
        "meta_element_set_no": 999,
        "meta_rev_at_epoch": 87328,
        "meta_bstar": 0.0078933,
        "meta_mean_motion_dot": 0.00168825,
        "meta_mean_motion_ddot": 0,
        "tle_line1": "1 35432U 93036AKA 25335.21163291  .00168825  00000+0  78933-2 0  9992",
        "tle_line2": "2 35432  74.0200  39.7774 0011708 355.1104   4.9976 15.18892352873282"
      },
      "geometry": {
        "type": "Point",
        "coordinates": [
          22.472493092068042,
          -39.36341383348175
        ]
      }
    },
    {
      "type": "Feature",
      "properties": {
        "norad_id": 35433,
        "name": "COSMOS 2251 DEB",
        "group": "cosmos-2251-debris",
        "lat": -61.11988439807844,
        "lon": -34.936008087805924,
        "alt_km": 791.9321817167029,
        "timestamp": "2025-12-02T23:34:15.913283+00:00",
        "meta_object_name": "COSMOS 2251 DEB",
        "meta_object_id": "1993-036AKB",
        "meta_epoch": "2025-11-29T08:56:22.068960",
        "meta_mean_motion": 14.34715508,
        "meta_eccentricity": 0.00253594,
        "meta_inclination": 74.0352,
        "meta_ra_of_asc_node": 2.9393,
        "meta_arg_of_pericenter": 62.2545,
        "meta_mean_anomaly": 316.1289,
        "meta_ephemeris_type": 0,
        "meta_classification_type": "U",
        "meta_norad_cat_id": 35433,
        "meta_element_set_no": 999,
        "meta_rev_at_epoch": 86389,
        "meta_bstar": 0.00023326055,
        "meta_mean_motion_dot": 6.37e-06,
        "meta_mean_motion_ddot": 0,
        "tle_line1": "1 35433U 93036AKB 25333.37247765  .00000637  00000+0  23326-3 0  9990",
        "tle_line2": "2 35433  74.0352   2.9393 0025359  62.2545 316.1289 14.34715508863897"
      },
      "geometry": {
        "type": "Point",
        "coordinates": [
          -34.936008087805924,
          -61.11988439807844
        ]
      }
    },
    {
      "type": "Feature",
      "properties": {
        "norad_id": 35434,
        "name": "COSMOS 2251 DEB",
        "group": "cosmos-2251-debris",
        "lat": 12.086091934736896,
        "lon": 47.725037538786154,
        "alt_km": 852.7218782265418,
        "timestamp": "2025-12-02T23:34:15.913294+00:00",
        "meta_object_name": "COSMOS 2251 DEB",
        "meta_object_id": "1993-036AKC",
        "meta_epoch": "2025-11-30T00:02:53.789280",
        "meta_mean_motion": 14.25623606,
        "meta_eccentricity": 0.00876191,
        "meta_inclination": 74.0414,
        "meta_ra_of_asc_node": 236.6139,
        "meta_arg_of_pericenter": 309.9857,
        "meta_mean_anomaly": 49.362,
        "meta_ephemeris_type": 0,
        "meta_classification_type": "U",
        "meta_norad_cat_id": 35434,
        "meta_element_set_no": 999,
        "meta_rev_at_epoch": 85936,
        "meta_bstar": 0.00077223856,
        "meta_mean_motion_dot": 1.879e-05,
        "meta_mean_motion_ddot": 0,
        "tle_line1": "1 35434U 93036AKC 25334.00201145  .00001879  00000+0  77224-3 0  9999",
        "tle_line2": "2 35434  74.0414 236.6139 0087619 309.9857  49.3620 14.25623606859363"
      },
      "geometry": {
        "type": "Point",
        "coordinates": [
          47.725037538786154,
          12.086091934736896
        ]
      }
    }
  ]
}